{
  "type": "FeatureCollection",
  "features": [
    {
      "type": "Feature",
      "properties": {
        "norad_id": 31826,
        "name": "FENGYUN 1C DEB",
        "group": "fengyun-1c-debris",
        "lat": 25.165210734867784,
        "lon": -31.86709532536906,
        "alt_km": 916.1904247235634,
        "timestamp": "2025-12-06T22:38:43.012419+00:00",
        "meta_object_name": "FENGYUN 1C DEB",
        "meta_object_id": "1999-025CHQ",
        "meta_epoch": "2025-12-06T11:23:56.742720",
        "meta_mean_motion": 14.19260003,
        "meta_eccentricity": 0.01237064,
        "meta_inclination": 98.6256,
        "meta_ra_of_asc_node": 331.7661,
        "meta_arg_of_pericenter": 207.4474,
        "meta_mean_anomaly": 305.2757,
        "meta_ephemeris_type": 0,
        "meta_classification_type": "U",
        "meta_norad_cat_id": 31826,
        "meta_element_set_no": 999,
        "meta_rev_at_epoch": 95725,
        "meta_bstar": 0.00064429982,
        "meta_mean_motion_dot": 1.415e-05,
        "meta_mean_motion_ddot": 0,
        "tle_line1": "1 31826U 99025CHQ 25340.47496230  .00001415  00000+0  64430-3 0  9994",
        "tle_line2": "2 31826  98.6256 331.7661 0123706 207.4474 305.2757 14.19260003957255"
      },
      "geometry": {
        "type": "Point",
        "coordinates": [
          -31.86709532536906,
          25.165210734867784
        ]
      }
    },
    {
      "type": "Feature",
      "properties": {
        "norad_id": 31829,
        "name": "FENGYUN 1C DEB",
        "group": "fengyun-1c-debris",
        "lat": 48.44718815146936,
        "lon": -18.824842282597594,
        "alt_km": 847.4661142570712,
        "timestamp": "2025-12-06T22:38:43.012430+00:00",
        "meta_object_name": "FENGYUN 1C DEB",
        "meta_object_id": "1999-025CHT",
        "meta_epoch": "2025-12-03T06:39:41.312736",
        "meta_mean_motion": 13.8866372,
        "meta_eccentricity": 0.0168978,
        "meta_inclination": 98.8353,
        "meta_ra_of_asc_node": 147.5933,
        "meta_arg_of_pericenter": 190.204,
        "meta_mean_anomaly": 344.9165,
        "meta_ephemeris_type": 0,
        "meta_classification_type": "U",
        "meta_norad_cat_id": 31829,
        "meta_element_set_no": 999,
        "meta_rev_at_epoch": 94016,
        "meta_bstar": 0.00067055,
        "meta_mean_motion_dot": 8.64e-06,
        "meta_mean_motion_ddot": 0,
        "tle_line1": "1 31829U 99025CHT 25337.27756149  .00000864  00000+0  67055-3 0  9992",
        "tle_line2": "2 31829  98.8353 147.5933 0168978 190.2040 344.9165 13.88663720940164"
      },
      "geometry": {
        "type": "Point",
        "coordinates": [
          -18.824842282597594,
          48.44718815146936
        ]
      }
    },
    {
      "type": "Feature",
      "properties": {
        "norad_id": 31830,
        "name": "FENGYUN 1C DEB",
        "group": "fengyun-1c-debris",
        "lat": -66.518756528025,
        "lon": -115.0371111905719,
        "alt_km": 938.4548039873935,
        "timestamp": "2025-12-06T22:38:43.012440+00:00",
        "meta_object_name": "FENGYUN 1C DEB",
        "meta_object_id": "1999-025CHU",
        "meta_epoch": "2025-12-02T06:36:37.177056",
        "meta_mean_motion": 13.83353348,
        "meta_eccentricity": 0.0181639,
        "meta_inclination": 99.1637,
        "meta_ra_of_asc_node": 82.2262,
        "meta_arg_of_pericenter": 342.8195,
        "meta_mean_anomaly": 72.1801,
        "meta_ephemeris_type": 0,
        "meta_classification_type": "U",
        "meta_norad_cat_id": 31830,
        "meta_element_set_no": 999,
        "meta_rev_at_epoch": 92595,
        "meta_bstar": 0.0020067,
        "meta_mean_motion_dot": 2.461e-05,
        "meta_mean_motion_ddot": 0,
        "tle_line1": "1 31830U 99025CHU 25336.27543029  .00002461  00000+0  20067-2 0  9990",
        "tle_line2": "2 31830  99.1637  82.2262 0181639 342.8195  72.1801 13.83353348925954"
      },
      "geometry": {
        "type": "Point",
        "coordinates": [
          -115.0371111905719,
          -66.518756528025
        ]
      }
    },
    {
      "type": "Feature",
      "properties": {
        "norad_id": 31834,
        "name": "FENGYUN 1C DEB",
        "group": "fengyun-1c-debris",
        "lat": -15.38955876614054,
        "lon": -156.07286081891712,
        "alt_km": 924.976502366093,
        "timestamp": "2025-12-06T22:38:43.012449+00:00",
        "meta_object_name": "FENGYUN 1C DEB",
        "meta_object_id": "1999-025CHY",
        "meta_epoch": "2025-12-05T21:02:55.121568",
        "meta_mean_motion": 14.03144682,
        "meta_eccentricity": 0.01626696,
        "meta_inclination": 98.369,
        "meta_ra_of_asc_node": 200.6234,
        "meta_arg_of_pericenter": 96.9001,
        "meta_mean_anomaly": 265.0702,
        "meta_ephemeris_type": 0,
        "meta_classification_type": "U",
        "meta_norad_cat_id": 31834,
        "meta_element_set_no": 999,
        "meta_rev_at_epoch": 63614,
        "meta_bstar": 0.00034844542,
        "meta_mean_motion_dot": 5.72e-06,
        "meta_mean_motion_ddot": 0,
        "tle_line1": "1 31834U 99025CHY 25339.87702687  .00000572  00000+0  34845-3 0  9991",
        "tle_line2": "2 31834  98.3690 200.6234 0162669  96.9001 265.0702 14.03144682636143"
      },
      "geometry": {
        "type": "Point",
        "coordinates": [
          -156.07286081891712,
          -15.38955876614054
        ]
      }
    },
    {
      "type": "Feature",
      "properties": {
        "norad_id": 31837,
        "name": "FENGYUN 1C DEB",
        "group": "fengyun-1c-debris",
        "lat": 45.508042627624604,
        "lon": 48.07671701356353,
        "alt_km": 553.6938721459292,
        "timestamp": "2025-12-06T22:38:43.012459+00:00",
        "meta_object_name": "FENGYUN 1C DEB",
        "meta_object_id": "1999-025CJB",
        "meta_epoch": "2025-12-06T11:05:58.197696",
        "meta_mean_motion": 14.82076546,
        "meta_eccentricity": 0.0094318,
        "meta_inclination": 98.102,
        "meta_ra_of_asc_node": 55.9272,
        "meta_arg_of_pericenter": 38.0956,
        "meta_mean_anomaly": 322.6875,
        "meta_ephemeris_type": 0,
        "meta_classification_type": "U",
        "meta_norad_cat_id": 31837,
        "meta_element_set_no": 999,
        "meta_rev_at_epoch": 98266,
        "meta_bstar": 0.001865506,
        "meta_mean_motion_dot": 0.00015992,
        "meta_mean_motion_ddot": 0,
        "tle_line1": "1 31837U 99025CJB 25340.46247914  .00015992  00000+0  18655-2 0  9990",
        "tle_line2": "2 31837  98.1020  55.9272 0094318  38.0956 322.6875 14.82076546982667"
      },
      "geometry": {
        "type": "Point",
        "coordinates": [
          48.07671701356353,
          45.508042627624604
        ]
      }
    },
    {
      "type": "Feature",
      "properties": {
        "norad_id": 31838,
        "name": "FENGYUN 1C DEB",
        "group": "fengyun-1c-debris",
        "lat": 56.739668764691096,
        "lon": -134.75807454371505,
        "alt_km": 788.6145240916076,
        "timestamp": "2025-12-06T22:38:43.012469+00:00",
        "meta_object_name": "FENGYUN 1C DEB",
        "meta_object_id": "1999-025CJC",
        "meta_epoch": "2025-12-06T08:49:21.453024",
        "meta_mean_motion": 14.21105731,
        "meta_eccentricity": 0.00388378,
        "meta_inclination": 98.7183,
        "meta_ra_of_asc_node": 31.1437,
        "meta_arg_of_pericenter": 113.4762,
        "meta_mean_anomaly": 303.75,
        "meta_ephemeris_type": 0,
        "meta_classification_type": "U",
        "meta_norad_cat_id": 31838,
        "meta_element_set_no": 999,
        "meta_rev_at_epoch": 64486,
        "meta_bstar": 0.0013391766,
        "meta_mean_motion_dot": 2.888e-05,
        "meta_mean_motion_ddot": 0,
        "tle_line1": "1 31838U 99025CJC 25340.36760941  .00002888  00000+0  13392-2 0  9993",
        "tle_line2": "2 31838  98.7183  31.1437 0038837 113.4762 303.7500 14.21105731644864"
      },
      "geometry": {
        "type": "Point",
        "coordinates": [
          -134.75807454371505,
          56.739668764691096
        ]
      }
    },
    {
      "type": "Feature",
      "properties": {
        "norad_id": 31841,
        "name": "FENGYUN 1C DEB",
        "group": "fengyun-1c-debris",
        "lat": 7.763717881455829,
        "lon": 148.94418719906162,
        "alt_km": 724.3542609320002,
        "timestamp": "2025-12-06T22:38:43.012479+00:00",
        "meta_object_name": "FENGYUN 1C DEB",
        "meta_object_id": "1999-025CJF",
        "meta_epoch": "2025-12-06T06:21:25.793568",
        "meta_mean_motion": 14.03499984,
        "meta_eccentricity": 0.03088004,
        "meta_inclination": 98.4174,
        "meta_ra_of_asc_node": 149.4715,
        "meta_arg_of_pericenter": 323.8486,
        "meta_mean_anomaly": 214.4661,
        "meta_ephemeris_type": 0,
        "meta_classification_type": "U",
        "meta_norad_cat_id": 31841,
        "meta_element_set_no": 999,
        "meta_rev_at_epoch": 59248,
        "meta_bstar": 0.0025383522,
        "meta_mean_motion_dot": 6.033e-05,
        "meta_mean_motion_ddot": 0,
        "tle_line1": "1 31841U 99025CJF 25340.26488187  .00006033  00000+0  25384-2 0  9995",
        "tle_line2": "2 31841  98.4174 149.4715 0308800 323.8486 214.4661 14.03499984592489"
      },
      "geometry": {
        "type": "Point",
        "coordinates": [
          148.94418719906162,
          7.763717881455829
        ]
      }
    }
  ]
}